{
  "type": "FeatureCollection",
  "features": [
    {
      "type": "Feature",
      "properties": {
        "norad_id": 31095,
        "name": "FENGYUN 1C DEB",
        "group": "fengyun-1c-debris",
        "lat": -8.18080130563917,
        "lon": -53.213173302860284,
        "alt_km": 861.818062209607,
        "timestamp": "2025-12-11T07:02:24.010996+00:00",
        "meta_object_name": "FENGYUN 1C DEB",
        "meta_object_id": "1999-025BGR",
        "meta_epoch": "2025-12-10T04:20:23.393184",
        "meta_mean_motion": 13.06664337,
        "meta_eccentricity": 0.0499951,
        "meta_inclination": 98.5613,
        "meta_ra_of_asc_node": 127.1367,
        "meta_arg_of_pericenter": 197.9865,
        "meta_mean_anomaly": 160.2986,
        "meta_ephemeris_type": 0,
        "meta_classification_type": "U",
        "meta_norad_cat_id": 31095,
        "meta_element_set_no": 999,
        "meta_rev_at_epoch": 89414,
        "meta_bstar": 0.00070249,
        "meta_mean_motion_dot": 3.95e-06,
        "meta_mean_motion_ddot": 0,
        "tle_line1": "1 31095U 99025BGR 25344.18082631  .00000395  00000+0  70249-3 0  9991",
        "tle_line2": "2 31095  98.5613 127.1367 0499951 197.9865 160.2986 13.06664337894148"
      },
      "geometry": {
        "type": "Point",
        "coordinates": [
          -53.213173302860284,
          -8.18080130563917
        ]
      }
    },
    {
      "type": "Feature",
      "properties": {
        "norad_id": 31097,
        "name": "FENGYUN 1C DEB",
        "group": "fengyun-1c-debris",
        "lat": 50.00518743259683,
        "lon": -61.28543543001987,
        "alt_km": 739.8740819365103,
        "timestamp": "2025-12-11T07:02:24.011006+00:00",
        "meta_object_name": "FENGYUN 1C DEB",
        "meta_object_id": "1999-025BGT",
        "meta_epoch": "2025-12-09T14:39:53.425728",
        "meta_mean_motion": 14.46886925,
        "meta_eccentricity": 0.0015062,
        "meta_inclination": 98.8581,
        "meta_ra_of_asc_node": 106.243,
        "meta_arg_of_pericenter": 279.3966,
        "meta_mean_anomaly": 91.9398,
        "meta_ephemeris_type": 0,
        "meta_classification_type": "U",
        "meta_norad_cat_id": 31097,
        "meta_element_set_no": 999,
        "meta_rev_at_epoch": 96993,
        "meta_bstar": 0.0040814,
        "meta_mean_motion_dot": 0.00014813,
        "meta_mean_motion_ddot": 0,
        "tle_line1": "1 31097U 99025BGT 25343.61103502  .00014813  00000+0  40814-2 0  9995",
        "tle_line2": "2 31097  98.8581 106.2430 0015062 279.3966  91.9398 14.46886925969931"
      },
      "geometry": {
        "type": "Point",
        "coordinates": [
          -61.28543543001987,
          50.00518743259683
        ]
      }
    },
    {
      "type": "Feature",
      "properties": {
        "norad_id": 31098,
        "name": "FENGYUN 1C DEB",
        "group": "fengyun-1c-debris",
        "lat": -26.089238837081744,
        "lon": 107.54917198343787,
        "alt_km": 724.7441502446618,
        "timestamp": "2025-12-11T07:02:24.011016+00:00",
        "meta_object_name": "FENGYUN 1C DEB",
        "meta_object_id": "1999-025BGU",
        "meta_epoch": "2025-12-10T19:34:48.693504",
        "meta_mean_motion": 14.51439121,
        "meta_eccentricity": 0.00146953,
        "meta_inclination": 98.8694,
        "meta_ra_of_asc_node": 102.6605,
        "meta_arg_of_pericenter": 254.8898,
        "meta_mean_anomaly": 105.067,
        "meta_ephemeris_type": 0,
        "meta_classification_type": "U",
        "meta_norad_cat_id": 31098,
        "meta_element_set_no": 999,
        "meta_rev_at_epoch": 96929,
        "meta_bstar": 0.0053076204,
        "meta_mean_motion_dot": 0.00021233,
        "meta_mean_motion_ddot": 0,
        "tle_line1": "1 31098U 99025BGU 25344.81584136  .00021233  00000+0  53076-2 0  9993",
        "tle_line2": "2 31098  98.8694 102.6605 0014695 254.8898 105.0670 14.51439121969291"
      },
      "geometry": {
        "type": "Point",
        "coordinates": [
          107.54917198343787,
          -26.089238837081744
        ]
      }
    },
    {
      "type": "Feature",
      "properties": {
        "norad_id": 31099,
        "name": "FENGYUN 1C DEB",
        "group": "fengyun-1c-debris",
        "lat": -74.63810899809518,
        "lon": -87.31057525480479,
        "alt_km": 760.9915042135699,
        "timestamp": "2025-12-11T07:02:24.011026+00:00",
        "meta_object_name": "FENGYUN 1C DEB",
        "meta_object_id": "1999-025BGV",
        "meta_epoch": "2025-12-09T05:33:14.356224",
        "meta_mean_motion": 14.2791412,
        "meta_eccentricity": 0.0062771,
        "meta_inclination": 98.9385,
        "meta_ra_of_asc_node": 235.6295,
        "meta_arg_of_pericenter": 291.7398,
        "meta_mean_anomaly": 197.5566,
        "meta_ephemeris_type": 0,
        "meta_classification_type": "U",
        "meta_norad_cat_id": 31099,
        "meta_element_set_no": 999,
        "meta_rev_at_epoch": 97421,
        "meta_bstar": 0.00056682,
        "meta_mean_motion_dot": 1.387e-05,
        "meta_mean_motion_ddot": 0,
        "tle_line1": "1 31099U 99025BGV 25343.23141616  .00001387  00000+0  56682-3 0  9996",
        "tle_line2": "2 31099  98.9385 235.6295 0062771 291.7398 197.5566 14.27914120974213"
      },
      "geometry": {
        "type": "Point",
        "coordinates": [
          -87.31057525480479,
          -74.63810899809518
        ]
      }
    },
    {
      "type": "Feature",
      "properties": {
        "norad_id": 31146,
        "name": "FENGYUN 1C DEB",
        "group": "fengyun-1c-debris",
        "lat": 37.193590266841866,
        "lon": 102.94864804079307,
        "alt_km": 662.5644355433751,
        "timestamp": "2025-12-11T07:02:24.011036+00:00",
        "meta_object_name": "FENGYUN 1C DEB",
        "meta_object_id": "1999-025BGY",
        "meta_epoch": "2025-12-10T18:35:54.782304",
        "meta_mean_motion": 14.27697902,
        "meta_eccentricity": 0.02125302,
        "meta_inclination": 99.0412,
        "meta_ra_of_asc_node": 275.4721,
        "meta_arg_of_pericenter": 172.7078,
        "meta_mean_anomaly": 187.7279,
        "meta_ephemeris_type": 0,
        "meta_classification_type": "U",
        "meta_norad_cat_id": 31146,
        "meta_element_set_no": 999,
        "meta_rev_at_epoch": 96737,
        "meta_bstar": 0.00050499457,
        "meta_mean_motion_dot": 1.533e-05,
        "meta_mean_motion_ddot": 0,
        "tle_line1": "1 31146U 99025BGY 25344.77493961  .00001533  00000+0  50499-3 0  9995",
        "tle_line2": "2 31146  99.0412 275.4721 0212530 172.7078 187.7279 14.27697902967375"
      },
      "geometry": {
        "type": "Point",
        "coordinates": [
          102.94864804079307,
          37.193590266841866
        ]
      }
    },
    {
      "type": "Feature",
      "properties": {
        "norad_id": 31148,
        "name": "FENGYUN 1C DEB",
        "group": "fengyun-1c-debris",
        "lat": -49.91402299047214,
        "lon": 40.114207798994975,
        "alt_km": 851.42681029309,
        "timestamp": "2025-12-11T07:02:24.011047+00:00",
        "meta_object_name": "FENGYUN 1C DEB",
        "meta_object_id": "1999-025BHA",
        "meta_epoch": "2025-12-10T15:00:25.932096",
        "meta_mean_motion": 14.43336097,
        "meta_eccentricity": 0.0136621,
        "meta_inclination": 98.8655,
        "meta_ra_of_asc_node": 230.106,
        "meta_arg_of_pericenter": 56.9202,
        "meta_mean_anomaly": 304.5019,
        "meta_ephemeris_type": 0,
        "meta_classification_type": "U",
        "meta_norad_cat_id": 31148,
        "meta_element_set_no": 999,
        "meta_rev_at_epoch": 97500,
        "meta_bstar": 0.001247,
        "meta_mean_motion_dot": 4.658e-05,
        "meta_mean_motion_ddot": 0,
        "tle_line1": "1 31148U 99025BHA 25344.62530014  .00004658  00000+0  12470-2 0  9999",
        "tle_line2": "2 31148  98.8655 230.1060 0136621  56.9202 304.5019 14.43336097975008"
      },
      "geometry": {
        "type": "Point",
        "coordinates": [
          40.114207798994975,
          -49.91402299047214
        ]
      }
    },
    {
      "type": "Feature",
      "properties": {
        "norad_id": 31150,
        "name": "FENGYUN 1C DEB",
        "group": "fengyun-1c-debris",
        "lat": 37.44245563351225,
        "lon": -179.28468393233254,
        "alt_km": 837.0750256602441,
        "timestamp": "2025-12-11T07:02:24.011057+00:00",
        "meta_object_name": "FENGYUN 1C DEB",
        "meta_object_id": "1999-025BHC",
        "meta_epoch": "2025-12-10T23:42:34.157376",
        "meta_mean_motion": 14.12731668,
        "meta_eccentricity": 0.00151666,
        "meta_inclination": 98.686,
        "meta_ra_of_asc_node": 353.6969,
        "meta_arg_of_pericenter": 164.4358,
        "meta_mean_anomaly": 225.0497,
        "meta_ephemeris_type": 0,
        "meta_classification_type": "U",
        "meta_norad_cat_id": 31150,
        "meta_element_set_no": 999,
        "meta_rev_at_epoch": 96272,
        "meta_bstar": 0.00021557712,
        "meta_mean_motion_dot": 3.58e-06,
        "meta_mean_motion_ddot": 0,
        "tle_line1": "1 31150U 99025BHC 25344.98789534  .00000358  00000+0  21558-3 0  9995",
        "tle_line2": "2 31150  98.6860 353.6969 0015166 164.4358 225.0497 14.12731668962724"
      },
      "geometry": {
        "type": "Point",
        "coordinates": [
          -179.28468393233254,
          37.44245563351225
        ]
      }
    }
  ]
}